[{"OBJECT_NAME":"EOSSAT-1","OBJECT_ID":"2023-001AW","EPOCH":"2026-03-09T17:40:07.010400","MEAN_MOTION":15.32339828,"ECCENTRICITY":0.00112629,"INCLINATION":97.3357,"RA_OF_ASC_NODE":130.2294,"ARG_OF_PERICENTER":110.3168,"MEAN_ANOMALY":249.9285,"EPHEMERIS_TYPE":0,"CLASSIFICATION_TYPE":"U","NORAD_CAT_ID":55053,"ELEMENT_SET_NO":999,"REV_AT_EPOCH":17668,"BSTAR":0.00024844399,"MEAN_MOTION_DOT":7.695e-5,"MEAN_MOTION_DDOT":0},{"OBJECT_NAME":"STARLINK-32149","OBJECT_ID":"2024-132Q","EPOCH":"2026-03-09T22:07:38.055072","MEAN_MOTION":15.30186437,"ECCENTRICITY":0.0001275,"INCLINATION":53.1616,"RA_OF_ASC_NODE":51.5165,"ARG_OF_PERICENTER":103.1542,"MEAN_ANOMALY":256.9601,"EPHEMERIS_TYPE":0,"CLASSIFICATION_TYPE":"U","NORAD_CAT_ID":60292,"ELEMENT_SET_NO":999,"REV_AT_EPOCH":9159,"BSTAR":2.2871411e-5,"MEAN_MOTION_DOT":3.18e-6,"MEAN_MOTION_DDOT":0}]
